[{"OBJECT_NAME":"GOES 19","OBJECT_ID":"2024-119A","EPOCH":"2026-03-03T22:16:34.447008","MEAN_MOTION":1.0027205,"ECCENTRICITY":9.808e-5,"INCLINATION":0.0168,"RA_OF_ASC_NODE":328.2901,"ARG_OF_PERICENTER":50.7136,"MEAN_ANOMALY":41.62,"EPHEMERIS_TYPE":0,"CLASSIFICATION_TYPE":"U","NORAD_CAT_ID":60133,"ELEMENT_SET_NO":999,"REV_AT_EPOCH":590,"BSTAR":0,"MEAN_MOTION_DOT":-2.62e-6,"MEAN_MOTION_DDOT":0},{"OBJECT_NAME":"FENGYUN 3H","OBJECT_ID":"2025-219A","EPOCH":"2026-03-03T21:44:42.347616","MEAN_MOTION":14.19930776,"ECCENTRICITY":0.00013989,"INCLINATION":98.6679,"RA_OF_ASC_NODE":5.7741,"ARG_OF_PERICENTER":65.6811,"MEAN_ANOMALY":294.4511,"EPHEMERIS_TYPE":0,"CLASSIFICATION_TYPE":"U","NORAD_CAT_ID":65815,"ELEMENT_SET_NO":999,"REV_AT_EPOCH":2244,"BSTAR":7.1899727e-5,"MEAN_MOTION_DOT":1.09e-6,"MEAN_MOTION_DDOT":0}]
