GOES 19                 
1 60133U 24119A   26062.92817647 -.00000262  00000+0  00000+0 0  9999
2 60133   0.0168 328.2901 0000980  50.7136  41.6200  1.00272050  5908
FENGYUN 3H              
1 65815U 25219A   26062.90604569  .00000109  00000+0  71900-4 0  9999
2 65815  98.6679   5.7741 0001398  65.6811 294.4511 14.19930776 22449
